{
 "generated_at": "2026-06-11T23:47:41Z",
 "sources": [
  {
   "name": "CelesTrak",
   "url": "https://celestrak.org/NORAD/elements/",
   "license": "frei verfügbar; Attribution. Ursprünglich USSPACECOM/Space-Track."
  },
  {
   "name": "GCAT (J. McDowell, planet4589.org)",
   "url": "https://planet4589.org/space/gcat/",
   "license": "CC-BY 4.0"
  }
 ],
 "satellites": [
  {
   "norad": 41335,
   "name": "SENTINEL-3A",
   "intl": "2016-011A",
   "group": "resource",
   "gcat": {
    "class": "C",
    "category": "IMG",
    "owner": "COPERN/ESA",
    "state": "I-EU"
   },
   "omm": {
    "OBJECT_NAME": "SENTINEL-3A",
    "OBJECT_ID": "2016-011A",
    "EPOCH": "2026-06-11T16:13:52.587840",
    "MEAN_MOTION": 14.26738441,
    "ECCENTRICITY": 0.0001377,
    "INCLINATION": 98.6249,
    "RA_OF_ASC_NODE": 230.1389,
    "ARG_OF_PERICENTER": 103.4347,
    "MEAN_ANOMALY": 256.6987,
    "EPHEMERIS_TYPE": 0,
    "CLASSIFICATION_TYPE": "U",
    "NORAD_CAT_ID": 41335,
    "ELEMENT_SET_NO": 999,
    "REV_AT_EPOCH": 53727,
    "BSTAR": 0.000051276,
    "MEAN_MOTION_DOT": 8e-7,
    "MEAN_MOTION_DDOT": 0
   }
  },
  {
   "norad": 43437,
   "name": "SENTINEL-3B",
   "intl": "2018-039A",
   "group": "resource",
   "gcat": {
    "class": "C",
    "category": "IMG",
    "owner": "COPERN/ESA",
    "state": "I-EU"
   },
   "omm": {
    "OBJECT_NAME": "SENTINEL-3B",
    "OBJECT_ID": "2018-039A",
    "EPOCH": "2026-06-11T10:32:13.596000",
    "MEAN_MOTION": 14.26740095,
    "ECCENTRICITY": 0.0000809,
    "INCLINATION": 98.6248,
    "RA_OF_ASC_NODE": 230.0537,
    "ARG_OF_PERICENTER": 80.8461,
    "MEAN_ANOMALY": 279.2811,
    "EPHEMERIS_TYPE": 0,
    "CLASSIFICATION_TYPE": "U",
    "NORAD_CAT_ID": 43437,
    "ELEMENT_SET_NO": 999,
    "REV_AT_EPOCH": 42330,
    "BSTAR": 0.000049397,
    "MEAN_MOTION_DOT": 7.6e-7,
    "MEAN_MOTION_DDOT": 0
   }
  },
  {
   "norad": 42969,
   "name": "SENTINEL-5P",
   "intl": "2017-064A",
   "group": "resource",
   "gcat": {
    "class": "C",
    "category": "IMG",
    "owner": "COPERN/ESA",
    "state": "I-EU"
   },
   "omm": {
    "OBJECT_NAME": "SENTINEL-5P",
    "OBJECT_ID": "2017-064A",
    "EPOCH": "2026-06-11T16:53:43.122048",
    "MEAN_MOTION": 14.19518062,
    "ECCENTRICITY": 0.0000985,
    "INCLINATION": 98.7925,
    "RA_OF_ASC_NODE": 104.8742,
    "ARG_OF_PERICENTER": 83.5718,
    "MEAN_ANOMALY": 276.557,
    "EPHEMERIS_TYPE": 0,
    "CLASSIFICATION_TYPE": "U",
    "NORAD_CAT_ID": 42969,
    "ELEMENT_SET_NO": 999,
    "REV_AT_EPOCH": 44878,
    "BSTAR": 0.000032042,
    "MEAN_MOTION_DOT": 2.3e-7,
    "MEAN_MOTION_DDOT": 0
   }
  },
  {
   "norad": 46984,
   "name": "SENTINEL-6A",
   "intl": "2020-086A",
   "group": "resource",
   "gcat": {
    "class": "C",
    "category": "EOSCI",
    "owner": "COPERN/ESA",
    "state": "I-EU"
   },
   "omm": {
    "OBJECT_NAME": "SENTINEL-6A",
    "OBJECT_ID": "2020-086A",
    "EPOCH": "2026-06-11T07:23:19.512672",
    "MEAN_MOTION": 12.809299,
    "ECCENTRICITY": 0.000794,
    "INCLINATION": 66.0388,
    "RA_OF_ASC_NODE": 147.2637,
    "ARG_OF_PERICENTER": 270.2561,
    "MEAN_ANOMALY": 89.7545,
    "EPHEMERIS_TYPE": 0,
    "CLASSIFICATION_TYPE": "U",
    "NORAD_CAT_ID": 46984,
    "ELEMENT_SET_NO": 999,
    "REV_AT_EPOCH": 25957,
    "BSTAR": 0.00012839,
    "MEAN_MOTION_DOT": -3.1e-7,
    "MEAN_MOTION_DDOT": 0
   }
  },
  {
   "norad": 66514,
   "name": "SENTINEL-6B",
   "intl": "2025-264A",
   "group": "resource",
   "gcat": {
    "class": "C",
    "category": "EOSCI",
    "owner": "COPERN/ESA",
    "state": "I-EU"
   },
   "omm": {
    "OBJECT_NAME": "SENTINEL-6B",
    "OBJECT_ID": "2025-264A",
    "EPOCH": "2026-06-11T07:23:49.579872",
    "MEAN_MOTION": 12.809299,
    "ECCENTRICITY": 0.0008038,
    "INCLINATION": 66.0388,
    "RA_OF_ASC_NODE": 147.3891,
    "ARG_OF_PERICENTER": 269.2334,
    "MEAN_ANOMALY": 90.776,
    "EPHEMERIS_TYPE": 0,
    "CLASSIFICATION_TYPE": "U",
    "NORAD_CAT_ID": 66514,
    "ELEMENT_SET_NO": 999,
    "REV_AT_EPOCH": 2641,
    "BSTAR": 0.00013148,
    "MEAN_MOTION_DOT": -3.1e-7,
    "MEAN_MOTION_DDOT": 0
   }
  },
  {
   "norad": 28220,
   "name": "SHIYAN-1 (SY-1)",
   "intl": "2004-012A",
   "group": "resource",
   "gcat": {
    "class": null,
    "category": null,
    "owner": null,
    "state": null
   },
   "omm": {
    "OBJECT_NAME": "SHIYAN-1 (SY-1)",
    "OBJECT_ID": "2004-012A",
    "EPOCH": "2026-06-11T12:10:40.001088",
    "MEAN_MOTION": 15.33617096,
    "ECCENTRICITY": 0.0006063,
    "INCLINATION": 97.8695,
    "RA_OF_ASC_NODE": 240.207,
    "ARG_OF_PERICENTER": 51.0427,
    "MEAN_ANOMALY": 309.1354,
    "EPHEMERIS_TYPE": 0,
    "CLASSIFICATION_TYPE": "U",
    "NORAD_CAT_ID": 28220,
    "ELEMENT_SET_NO": 999,
    "REV_AT_EPOCH": 21022,
    "BSTAR": 0.00040292,
    "MEAN_MOTION_DOT": 0.00013024,
    "MEAN_MOTION_DDOT": 0
   }
  },
  {
   "norad": 28893,
   "name": "SINAH 1",
   "intl": "2005-043D",
   "group": "resource",
   "gcat": {
    "class": null,
    "category": null,
    "owner": null,
    "state": null
   },
   "omm": {
    "OBJECT_NAME": "SINAH 1",
    "OBJECT_ID": "2005-043D",
    "EPOCH": "2026-06-11T15:43:42.602880",
    "MEAN_MOTION": 14.64154026,
    "ECCENTRICITY": 0.001322,
    "INCLINATION": 98.2853,
    "RA_OF_ASC_NODE": 296.945,
    "ARG_OF_PERICENTER": 295.8226,
    "MEAN_ANOMALY": 64.1612,
    "EPHEMERIS_TYPE": 0,
    "CLASSIFICATION_TYPE": "U",
    "NORAD_CAT_ID": 28893,
    "ELEMENT_SET_NO": 999,
    "REV_AT_EPOCH": 9971,
    "BSTAR": 0.000060222,
    "MEAN_MOTION_DOT": 0.00000267,
    "MEAN_MOTION_DDOT": 0
   }
  },
  {
   "norad": 39418,
   "name": "SKYSAT-A",
   "intl": "2013-066C",
   "group": "resource",
   "gcat": {
    "class": "B",
    "category": "IMG",
    "owner": "SKYBOX",
    "state": "US"
   },
   "omm": {
    "OBJECT_NAME": "SKYSAT-A",
    "OBJECT_ID": "2013-066C",
    "EPOCH": "2026-06-11T15:15:20.421792",
    "MEAN_MOTION": 15.12945014,
    "ECCENTRICITY": 0.0020589,
    "INCLINATION": 97.3821,
    "RA_OF_ASC_NODE": 212.2094,
    "ARG_OF_PERICENTER": 337.7008,
    "MEAN_ANOMALY": 22.3326,
    "EPHEMERIS_TYPE": 0,
    "CLASSIFICATION_TYPE": "U",
    "NORAD_CAT_ID": 39418,
    "ELEMENT_SET_NO": 999,
    "REV_AT_EPOCH": 68764,
    "BSTAR": 0.00015053,
    "MEAN_MOTION_DOT": 0.00002602,
    "MEAN_MOTION_DDOT": 0
   }
  },
  {
   "norad": 40072,
   "name": "SKYSAT-B",
   "intl": "2014-037D",
   "group": "resource",
   "gcat": {
    "class": "B",
    "category": "IMG",
    "owner": "SKYBOX",
    "state": "US"
   },
   "omm": {
    "OBJECT_NAME": "SKYSAT-B",
    "OBJECT_ID": "2014-037D",
    "EPOCH": "2026-06-11T16:16:51.058272",
    "MEAN_MOTION": 14.88014022,
    "ECCENTRICITY": 0.0004376,
    "INCLINATION": 98.3837,
    "RA_OF_ASC_NODE": 121.3294,
    "ARG_OF_PERICENTER": 305.3512,
    "MEAN_ANOMALY": 54.7293,
    "EPHEMERIS_TYPE": 0,
    "CLASSIFICATION_TYPE": "U",
    "NORAD_CAT_ID": 40072,
    "ELEMENT_SET_NO": 999,
    "REV_AT_EPOCH": 64514,
    "BSTAR": 0.00013576,
    "MEAN_MOTION_DOT": 0.00001185,
    "MEAN_MOTION_DDOT": 0
   }
  },
  {
   "norad": 41601,
   "name": "SKYSAT-C1",
   "intl": "2016-040C",
   "group": "resource",
   "gcat": {
    "class": "B",
    "category": "IMG",
    "owner": "TBELLA",
    "state": "US"
   },
   "omm": {
    "OBJECT_NAME": "SKYSAT-C1",
    "OBJECT_ID": "2016-040C",
    "EPOCH": "2026-06-11T14:45:06.687072",
    "MEAN_MOTION": 15.36206856,
    "ECCENTRICITY": 0.0003916,
    "INCLINATION": 96.9571,
    "RA_OF_ASC_NODE": 194.6367,
    "ARG_OF_PERICENTER": 68.8663,
    "MEAN_ANOMALY": 291.3,
    "EPHEMERIS_TYPE": 0,
    "CLASSIFICATION_TYPE": "U",
    "NORAD_CAT_ID": 41601,
    "ELEMENT_SET_NO": 999,
    "REV_AT_EPOCH": 55701,
    "BSTAR": 0.0002415,
    "MEAN_MOTION_DOT": 0.00008449,
    "MEAN_MOTION_DDOT": 0
   }
  }
 ]
}
