SHIYAN-1 (SY-1)         
1 28220U 04012A   26162.50740742  .00013024  00000+0  40292-3 0  9996
2 28220  97.8695 240.2070 0006063  51.0427 309.1354 15.33617096210222
SINAH 1                 
1 28893U 05043D   26162.65535420  .00000267  00000+0  60222-4 0  9999
2 28893  98.2853 296.9450 0013220 295.8226  64.1612 14.64154026 99713
SKYSAT-A                
1 39418U 13066C   26162.63565303  .00002602  00000+0  15053-3 0  9995
2 39418  97.3821 212.2094 0020589 337.7008  22.3326 15.12945014687640
SKYSAT-B                
1 40072U 14037D   26162.67836873  .00001185  00000+0  13576-3 0  9992
2 40072  98.3837 121.3294 0004376 305.3512  54.7293 14.88014022645144
SENTINEL-3A             
1 41335U 16011A   26162.67630310  .00000080  00000+0  51276-4 0  9990
2 41335  98.6249 230.1389 0001377 103.4347 256.6987 14.26738441537279
SKYSAT-C1               
1 41601U 16040C   26162.61466073  .00008449  00000+0  24150-3 0  9992
2 41601  96.9571 194.6367 0003916  68.8663 291.3000 15.36206856557018
SENTINEL-5P             
1 42969U 17064A   26162.70397132  .00000023  00000+0  32042-4 0  9996
2 42969  98.7925 104.8742 0000985  83.5718 276.5570 14.19518062448782
SENTINEL-3B             
1 43437U 18039A   26162.43904625  .00000076  00000+0  49397-4 0  9990
2 43437  98.6248 230.0537 0000809  80.8461 279.2811 14.26740095423304
SENTINEL-6A             
1 46984U 20086A   26162.30786473 -.00000031  00000+0  12839-3 0  9992
2 46984  66.0388 147.2637 0007940 270.2561  89.7545 12.80929900259573
SENTINEL-6B             
1 66514U 25264A   26162.30821273 -.00000031  00000+0  13148-3 0  9998
2 66514  66.0388 147.3891 0008038 269.2334  90.7760 12.80929900 26418
